STARLINK-36799          
1 67958U 26037AC  26064.16668981 -.01566243  71845-3 -35962-2 0  9990
2 67958  43.0001 226.3197 0001817 276.8277 113.3044 15.96484626  2471
STARLINK-36834          
1 67959U 26037AD  26064.16668981 -.01574686  72750-3 -35661-2 0  9993
2 67959  43.0002 226.3060 0001557 274.9807 120.3860 15.96737274  2475
STARLINK-36841          
1 67960U 26037AE  26064.16668981 -.01579534  73071-3 -36011-2 0  9999
2 67960  43.0001 226.3130 0001738 270.3549 122.2502 15.96615686  2474
STARLINK-36912          
1 67961U 26038A   26064.16668981 -.01558475  75983-3 -28176-2 0  9999
2 67961  97.2766  74.0832 0000980  72.1578 290.6489 16.01669029  2470
STARLINK-36881          
1 67962U 26038B   26064.16668981 -.01526478  73153-3 -27502-2 0  9997
2 67962  97.2764  74.0837 0000825  79.3967 285.1262 16.01725222  2479
STARLINK-36357          
1 67963U 26038C   26064.16668981 -.01535373  74159-3 -27274-2 0  9995
2 67963  97.2762  74.0857 0000885  77.7621 291.2185 16.01970672  2478
STARLINK-36349          
1 67964U 26038D   26064.16668981 -.01554162  75766-3 -27778-2 0  9997
2 67964  97.2760  74.0844 0000923  87.6763 279.0601 16.01867182  2471
STARLINK-36806          
1 67965U 26038E   26064.16668981 -.01542528  74927-3 -27178-2 0  9993
2 67965  97.2757  74.0868 0001014  58.1412 313.4164 16.02112164  2471
STARLINK-36820          
1 67966U 26038F   26064.16668981 -.01517735  72786-3 -26583-2 0  9996
2 67966  97.2757  74.0878 0000915  84.6255 289.1112 16.02211521  2470
STARLINK-36819          
1 67967U 26038G   26064.16668981 -.01540528  74942-3 -26791-2 0  9990
2 67967  97.2757  74.0888 0001089  64.8211 311.2636 16.02336197  2472
STARLINK-36812          
1 67968U 26038H   26064.16668981 -.01552653  76148-3 -26824-2 0  9990
2 67968  97.2753  74.0893 0001129  58.4651 319.6249 16.02451438  2475
STARLINK-36709          
1 67969U 26038J   26064.16668981 -.01526883  74016-3 -26013-2 0  9999
2 67969  97.2753  74.0915 0000877  79.2812 303.5841 16.02687917  2473
STARLINK-36319          
1 67970U 26038K   26064.16668981 -.01523826  73633-3 -26150-2 0  9991
2 67970  97.2753  74.0903 0001046  58.8800 321.5778 16.02562977  2445
STARLINK-36710          
1 67971U 26038L   26064.16668981 -.01517256  73283-3 -25614-2 0  9997
2 67971  97.2750  74.0928 0000911  70.7015 315.0601 16.02842112  2479
STARLINK-36894          
1 67972U 26038M   26064.16668981 -.01504277  72221-3 -25218-2 0  9998
2 67972  97.2747  74.0937 0001079  51.4842 336.6838 16.02959694  2471
STARLINK-36900          
1 67973U 26038N   26064.16668981 -.01505761  72562-3 -24885-2 0  9995
2 67973  97.2746  74.0957 0000878  76.0023 316.9714 16.03203416  2472
